[{"OBJECT_NAME":"STARLINK-4162","OBJECT_ID":"2022-086AY","EPOCH":"2026-03-09T14:18:54.903456","MEAN_MOTION":15.08840174,"ECCENTRICITY":0.0001205,"INCLINATION":53.2179,"RA_OF_ASC_NODE":184.541,"ARG_OF_PERICENTER":92.8536,"MEAN_ANOMALY":267.2594,"EPHEMERIS_TYPE":0,"CLASSIFICATION_TYPE":"U","NORAD_CAT_ID":53288,"ELEMENT_SET_NO":999,"REV_AT_EPOCH":20117,"BSTAR":-2.4361e-5,"MEAN_MOTION_DOT":-6.76e-6,"MEAN_MOTION_DDOT":0},{"OBJECT_NAME":"KSLV-II R\/B","OBJECT_ID":"2025-274P","EPOCH":"2026-03-09T17:44:44.185056","MEAN_MOTION":14.98166503,"ECCENTRICITY":0.00605567,"INCLINATION":97.7452,"RA_OF_ASC_NODE":0.3618,"ARG_OF_PERICENTER":19.961,"MEAN_ANOMALY":340.3962,"EPHEMERIS_TYPE":0,"CLASSIFICATION_TYPE":"U","NORAD_CAT_ID":66663,"ELEMENT_SET_NO":999,"REV_AT_EPOCH":1543,"BSTAR":0.00059831331,"MEAN_MOTION_DOT":7.309e-5,"MEAN_MOTION_DDOT":0}]
